STARLINK-1656
1 16353C 20062AF  21326.12081935 -.00014047  00000-0 -94104-3 0  3267
2 16353  53.0528 218.2028 0001950  75.7544  22.1288 15.06417234    13
